{
  "norad_id": 61062,
  "name": "STARLINK-11236 [DTC]",
  "history": [
    {
      "epoch": "2026-05-03T00:52:18.003936Z",
      "apogee_km": 360.5185636361284,
      "perigee_km": 358.95429894032077,
      "latitude_deg": 3.470715153721427e-05,
      "longitude_deg": 169.40943660356066,
      "height_km": 360.597301759136,
      "semi_major_axis_km": 6737.873431288224,
      "eccentricity": 0.00011608,
      "inclination_deg": 53.1598,
      "raan_deg": 43.4302,
      "arg_perigee_deg": 86.1378,
      "mean_anomaly_deg": 273.9773,
      "mean_motion_rev_day": 15.69706617
    },
    {
      "epoch": "2026-05-04T18:07:43.453920Z",
      "apogee_km": 360.21728998601793,
      "perigee_km": 359.0462657724229,
      "latitude_deg": 6.348318924829644e-05,
      "longitude_deg": -99.61685678665508,
      "height_km": 360.50667193101816,
      "semi_major_axis_km": 6737.768777879221,
      "eccentricity": 8.69e-05,
      "inclination_deg": 53.1582,
      "raan_deg": 34.9543,
      "arg_perigee_deg": 86.1924,
      "mean_anomaly_deg": 273.9194,
      "mean_motion_rev_day": 15.69743189
    }
  ]
}